[{"OBJECT_NAME":"STARLINK-6178","OBJECT_ID":"2023-061P","EPOCH":"2026-03-09T22:00:01.999584","MEAN_MOTION":15.117437,"ECCENTRICITY":0.00016359,"INCLINATION":43.0005,"RA_OF_ASC_NODE":195.5801,"ARG_OF_PERICENTER":301.8014,"MEAN_ANOMALY":159.6262,"EPHEMERIS_TYPE":0,"CLASSIFICATION_TYPE":"U","NORAD_CAT_ID":56387,"ELEMENT_SET_NO":999,"REV_AT_EPOCH":578,"BSTAR":0.072717287,"MEAN_MOTION_DOT":0.0137484,"MEAN_MOTION_DDOT":0},{"OBJECT_NAME":"SPACEEYE-T1","OBJECT_ID":"2025-052V","EPOCH":"2026-03-09T15:50:33.246528","MEAN_MOTION":15.21501707,"ECCENTRICITY":0.00061242,"INCLINATION":97.4063,"RA_OF_ASC_NODE":322.8058,"ARG_OF_PERICENTER":126.7741,"MEAN_ANOMALY":233.4058,"EPHEMERIS_TYPE":0,"CLASSIFICATION_TYPE":"U","NORAD_CAT_ID":63229,"ELEMENT_SET_NO":999,"REV_AT_EPOCH":5470,"BSTAR":0.00031827215,"MEAN_MOTION_DOT":7.097e-5,"MEAN_MOTION_DDOT":0}]
